ONEWEB-0029             
1 45445U 20020X   24186.48399824 -.00000017  00000+0 -83499-4 0  9990
2 45445  87.8969 162.8992 0002267  86.0228 274.1159 13.11415577209242
ONEWEB-0068             
1 45446U 20020Y   24186.45942078  .00000570  00000+0  15727-2 0  9992
2 45446  87.8972 162.8893 0002230  84.1961 275.9421 13.11418046209188
ONEWEB-0046             
1 45447U 20020Z   24186.45686532  .00000511  00000+0  14057-2 0  9993
2 45447  87.8972 162.9019 0002181  93.2066 266.9312 13.11420183209197
ONEWEB-0063             
1 45448U 20020AA  24186.48568836 -.00000105  00000+0 -33179-3 0  9991
2 45448  87.8968 162.8972 0001993  93.6774 266.4582 13.11415265209289
ONEWEB-0019             
1 45449U 20020AB  24186.46026266  .00000585  00000+0  16137-2 0  9990
2 45449  87.8974 162.9059 0001887  83.8965 276.2377 13.11416547209127
ONEWEB-0094             
1 45450U 20020AC  24186.84851366 -.00000018  00000+0 -78386-4 0  9990
2 45450  87.9179 147.6590 0002236  84.0020 276.1366 13.17648180212500
ONEWEB-0087             
1 45451U 20020AD  24186.87719942 -.00000419  00000+0 -12188-2 0  9998
2 45451  87.8962 162.7916 0002355  87.4320 272.7077 13.11416194209231
ONEWEB-0082             
1 45452U 20020AE  24186.87394913 -.00000335  00000+0 -98101-3 0  9993
2 45452  87.8969 162.7962 0002059  83.0587 277.0775 13.11414368209322
ONEWEB-0050             
1 45453U 20020AF  24186.59293819  .00002461  00000+0  25366-3 0  9999
2 45453  88.0015  23.7332 0004565  53.3406 306.8241 14.89867597234216
ONEWEB-0034             
1 45454U 20020AG  24186.43821436 -.00000236  00000+0 -70222-3 0  9996
2 45454  87.8972 162.9015 0002119  84.4577 275.6793 13.11418169209170
ONEWEB-0060             
1 45455U 20020AH  24186.86224241  .00000444  00000+0  12165-2 0  9995
2 45455  87.8970 162.8338 0001988  91.4774 268.6582 13.11413447209190
ONEWEB-0086             
1 45456U 20020AJ  24186.46365327  .00000569  00000+0  15693-2 0  9990
2 45456  87.8969 162.8974 0002528  84.8819 275.2598 13.11417998209198
ONEWEB-0088             
1 45457U 20020AK  24186.44161521 -.00000121  00000+0 -37780-3 0  9997
2 45457  87.8966 162.8663 0002172  86.7242 273.4134 13.11418060209127
ONEWEB-0102             
1 47258U 20100A   24186.54599005  .00000256  00000+0  67633-3 0  9997
2 47258  87.8952 132.5924 0001915  77.6726 282.4617 13.12441411171252
ONEWEB-0109             
1 47259U 20100B   24186.55410379 -.00000012  00000+0 -68512-4 0  9995
2 47259  87.8952 132.5554 0001943  77.5635 282.5710 13.12442938171082
ONEWEB-0110             
1 47260U 20100C   24186.58004893 -.00000349  00000+0 -10067-2 0  9993
2 47260  87.8947 132.5548 0002061  76.2562 283.8796 13.12445218171259
ONEWEB-0111             
1 47261U 20100D   24186.38216720  .00000489  00000+0  13243-2 0  9998
2 47261  87.8952 132.5911 0001997  78.8404 281.2949 13.12444162171068
ONEWEB-0114             
1 47262U 20100E   24186.56543264 -.00000326  00000+0 -94187-3 0  9994
2 47262  87.8948 132.5695 0001633  77.0588 283.0722 13.12440824171042
ONEWEB-0117             
1 47263U 20100F   24186.55734987 -.00000123  00000+0 -37677-3 0  9994
2 47263  87.8952 132.5473 0002078  79.9734 280.1629 13.12441901171052
ONEWEB-0118             
1 47264U 20100G   24186.58977863 -.00000025  00000+0 -10594-3 0  9990
2 47264  87.8953 132.5444 0001736  90.7994 269.3333 13.12443220171250
ONEWEB-0119             
1 47265U 20100H   24186.54111736  .00000362  00000+0  97011-3 0  9997
2 47265  87.8952 132.5928 0002064  78.6751 281.4609 13.12444098171220
ONEWEB-0120             
1 47266U 20100J   24186.56394885 -.00000297  00000+0 -86089-3 0  9990
2 47266  87.8953 132.5777 0001886  81.4399 278.6943 13.12440944171253
ONEWEB-0121             
1 47267U 20100K   24186.55246525  .00000025  00000+0  33717-4 0  9995
2 47267  87.8947 132.5702 0002158  77.3476 282.7893 13.12439947171169
ONEWEB-0122             
1 47268U 20100L   24186.54746269  .00000228  00000+0  59793-3 0  9991
2 47268  87.8947 132.5759 0002026  75.6412 284.4941 13.12440532171072
ONEWEB-0123             
1 47269U 20100M   24186.39026364  .00000345  00000+0  92411-3 0  9996
2 47269  87.8952 132.6215 0001986  81.2758 278.8595 13.12440750171194
ONEWEB-0124             
1 47270U 20100N   24186.83634081  .00000369  00000+0  99104-3 0  9990
2 47270  87.8952 132.5292 0002314  77.6952 282.4436 13.12442259171136
ONEWEB-0125             
1 47271U 20100P   24186.58492476 -.00000168  00000+0 -50173-3 0  9995
2 47271  87.8954 132.5387 0002208  89.8240 270.3142 13.12444410171165
ONEWEB-0126             
1 47272U 20100Q   24186.38134377  .00000452  00000+0  12216-2 0  9996
2 47272  87.8949 132.5845 0001896  79.1689 280.9652 13.12445091171204
ONEWEB-0127             
1 47273U 20100R   24186.87687361 -.00000600  00000+0 -17026-2 0  9998
2 47273  87.8954 132.5149 0001957  79.3374 280.7974 13.12442085171293
ONEWEB-0128             
1 47274U 20100S   24186.59464848  .00000106  00000+0  25989-3 0  9998
2 47274  87.8959 132.5757 0002210  73.0573 287.0797 13.12443442171278
ONEWEB-0129             
1 47275U 20100T   24186.87850178 -.00000448  00000+0 -12806-2 0  9999
2 47275  87.8952 132.4848 0000466  43.3509 316.7656 13.12445282171247
ONEWEB-0130             
1 47276U 20100U   24186.60113943  .00000329  00000+0  87970-3 0  9994
2 47276  87.8952 132.5474 0001992  75.5842 284.5508 13.12443047171173
ONEWEB-0131             
1 47277U 20100V   24186.59789733  .00000231  00000+0  60703-3 0  9996
2 47277  87.8955 132.5633 0002155  77.9230 282.2140 13.12443862171210
ONEWEB-0132             
1 47278U 20100W   24186.55084246  .00000116  00000+0  28756-3 0  9994
2 47278  87.8954 132.5750 0002312  81.7259 278.4131 13.12443218171109
ONEWEB-0133             
1 47279U 20100X   24186.87200927 -.00000377  00000+0 -10822-2 0  9991
2 47279  87.8949 132.5087 0002168  77.8105 282.3266 13.12443587171306
ONEWEB-0134             
1 47280U 20100Y   24186.38378585  .00000470  00000+0  12700-2 0  9994
2 47280  87.8948 132.5933 0002049  72.4118 287.7234 13.12442030171216
ONEWEB-0135             
1 47281U 20100Z   24186.58329725 -.00000219  00000+0 -64411-3 0  9999
2 47281  87.8952 132.5709 0002211  66.3748 293.7612 13.12444070171263
ONEWEB-0136             
1 47282U 20100AA  24186.60275957  .00000407  00000+0  10963-2 0  9999
2 47282  87.8954 132.5345 0001899  66.4495 293.6833 13.12442930171192
ONEWEB-0137             
1 47283U 20100AB  24186.56057391 -.00000246  00000+0 -71990-3 0  9996
2 47283  87.8947 132.5668 0001929  81.8962 278.2385 13.12440586171092
ONEWEB-0138             
1 47284U 20100AC  24186.38701031  .00000426  00000+0  11475-2 0  9993
2 47284  87.8948 132.6136 0001956  77.5765 282.5583 13.12444254171159
ONEWEB-0139             
1 47285U 20100AD  24186.88343972 -.00000399  00000+0 -11453-2 0  9992
2 47285  87.8955 132.4849 0002056  79.5656 280.5704 13.12441193171297
ONEWEB-0140             
1 47286U 20100AE  24186.38053432  .00000476  00000+0  12879-2 0  9994
2 47286  87.8948 132.5904 0002015  75.7443 284.3909 13.12441610171192
ONEWEB-0141             
1 47287U 20100AF  24186.88321422 -.00000414  00000+0 -11849-2 0  9997
2 47287  87.8950 132.5023 0002045  85.2094 274.9268 13.12446064171246
ONEWEB-0142             
1 47288U 20100AG  24186.54679266  .00000258  00000+0  68126-3 0  9998
2 47288  87.8949 132.5502 0001781  81.1846 278.9484 13.12440667171194
ONEWEB-0143             
1 47289U 20100AH  24186.57679057 -.00000383  00000+0 -11010-2 0  9990
2 47289  87.8952 132.5647 0002097  80.2937 279.8429 13.12445802171174
ONEWEB-0144             
1 47290U 20100AJ  24186.54923210  .00000167  00000+0  42829-3 0  9993
2 47290  87.8950 132.5539 0001690  76.7688 283.3629 13.12441759171095
ONEWEB-0145             
1 47291U 20100AK  24186.59626884  .00000163  00000+0  41871-3 0  9998
2 47291  87.8951 132.5683 0001931  79.3386 280.7960 13.12442955171299
ONEWEB-0146             
1 47292U 20100AL  24186.59301738  .00000164  00000+0  42033-3 0  9999
2 47292  87.8952 132.5528 0002488  83.1140 277.0272 13.12445395171205
ONEWEB-0147             
1 47293U 20100AM  24186.86389877 -.00000145  00000+0 -43838-3 0  9995
2 47293  87.8948 132.4924 0002037  70.7530 289.3819 13.12440460171138
ONEWEB-0115             
1 48042U 21025A   24186.45781851  .00000291  00000+0  76311-3 0  9990
2 48042  87.8927 102.1000 0002134  76.7348 283.4019 13.13471827160034
ONEWEB-0152             
1 48043U 21025B   24186.47052261 -.00000039  00000+0 -14101-3 0  9990
2 48043  87.8931 102.0955 0002077  76.7912 283.3449 13.13471735159998
ONEWEB-0153             
1 48044U 21025C   24186.82917939  .00000090  00000+0  21128-3 0  9994
2 48044  87.8933 102.0123 0001865  76.7108 283.4229 13.13470802160048
ONEWEB-0154             
1 48045U 21025D   24186.82600529  .00000033  00000+0  56023-4 0  9999
2 48045  87.8929 102.0239 0001960  75.3528 284.7818 13.13470824160007
ONEWEB-0116             
1 48046U 21025E   24186.48638393 -.00000570  00000+0 -15950-2 0  9992
2 48046  87.8934 102.0607 0002187  77.8432 282.2942 13.13470118160092
ONEWEB-0150             
1 48047U 21025F   24186.46100446  .00000225  00000+0  58189-3 0  9991
2 48047  87.8927 102.0840 0001870  78.9902 281.1438 13.13468108159986
ONEWEB-0107             
1 48048U 21025G   24186.46258595  .00000216  00000+0  55667-3 0  9999
2 48048  87.8927 102.0815 0001711  80.7095 279.4228 13.13468227159964
ONEWEB-0101             
1 48049U 21025H   24186.80697538 -.00000166  00000+0 -48901-3 0  9991
2 48049  87.8933 102.0300 0001921  74.3740 285.7601 13.13470918159987
ONEWEB-0113             
1 48050U 21025J   24186.48003654 -.00000329  00000+0 -93635-3 0  9992
2 48050  87.8933 102.0770 0002137  77.0592 283.0776 13.13468830160026
ONEWEB-0112             
1 48051U 21025K   24186.46734464  .00000059  00000+0  12652-3 0  9999
2 48051  87.8929 102.0782 0001980  79.6914 280.4438 13.13468063160031
